[
    {
        "Altitude(m)": 612513.959792451,
        "Argument of Periapsis(deg)": 0.0,
        "Eccentricity": 0.0,
        "Inclination(deg)": 60.0,
        "Latitude(deg)": -28.136054446614985,
        "Longitude(deg)": -97.0868960511419,
        "Mean Anomaly(deg)": -147.27270000000001,
        "RAAN(deg)": 165.0,
        "Satellite Name": "Test1 739",
        "Satellite Number": 739,
        "Semi-Major Axis(m)": 6980739.136638005,
        "Time(s)": 0
    },
    {
        "Altitude(m)": 612708.3281389433,
        "Argument of Periapsis(deg)": 0.00010418945913296404,
        "Eccentricity": 0.0,
        "Inclination(deg)": 60.0,
        "Latitude(deg)": -28.647793724301156,
        "Longitude(deg)": -96.72966560283592,
        "Mean Anomaly(deg)": -146.65259385453817,
        "RAAN(deg)": 164.99957995086024,
        "Satellite Name": "Test1 739",
        "Satellite Number": 739,
        "Semi-Major Axis(m)": 6980739.136638005,
        "Time(s)": 10
    }
]